{
  "norad_id": 59778,
  "name": "2024-092F",
  "history": [
    {
      "epoch": "2026-03-28T21:28:09.827616Z",
      "apogee_km": 468.2802019651208,
      "perigee_km": 456.57326119489517,
      "latitude_deg": -7.801744581506514e-05,
      "longitude_deg": 69.75190930279108,
      "height_km": 464.57491009637823,
      "semi_major_axis_km": 6840.563731580008,
      "eccentricity": 0.0008557,
      "inclination_deg": 97.6443,
      "raan_deg": 218.1013,
      "arg_perigee_deg": 80.7864,
      "mean_anomaly_deg": 279.4345,
      "mean_motion_rev_day": 15.34493036
    },
    {
      "epoch": "2026-03-28T21:28:09.828480Z",
      "apogee_km": 468.2804755876705,
      "perigee_km": 456.5729875723455,
      "latitude_deg": -8.253011213481905e-05,
      "longitude_deg": 69.75190629525093,
      "height_km": 464.57486627657664,
      "semi_major_axis_km": 6840.563731580008,
      "eccentricity": 0.00085574,
      "inclination_deg": 97.6443,
      "raan_deg": 218.1013,
      "arg_perigee_deg": 80.7864,
      "mean_anomaly_deg": 279.4345,
      "mean_motion_rev_day": 15.34493036
    },
    {
      "epoch": "2026-03-29T20:56:40.212096Z",
      "apogee_km": 468.03861521630006,
      "perigee_km": 456.4387061708967,
      "latitude_deg": 7.61759452083473e-05,
      "longitude_deg": 77.67429874570166,
      "height_km": 464.06522270191357,
      "semi_major_axis_km": 6840.375660693599,
      "eccentricity": 0.0008479,
      "inclination_deg": 97.6443,
      "raan_deg": 219.1144,
      "arg_perigee_deg": 77.4602,
      "mean_anomaly_deg": 282.7589,
      "mean_motion_rev_day": 15.34556321
    },
    {
      "epoch": "2026-03-30T06:20:03.491520Z",
      "apogee_km": 467.9697689245759,
      "perigee_km": 456.38255204324196,
      "latitude_deg": 4.189416444310095e-05,
      "longitude_deg": -63.15281928589234,
      "height_km": 463.8391346973826,
      "semi_major_axis_km": 6840.313160483909,
      "eccentricity": 0.00084698,
      "inclination_deg": 97.6445,
      "raan_deg": 219.5199,
      "arg_perigee_deg": 75.7815,
      "mean_anomaly_deg": 284.4368,
      "mean_motion_rev_day": 15.34577353
    },
    {
      "epoch": "2026-03-30T14:09:32.461056Z",
      "apogee_km": 467.89924387763585,
      "perigee_km": 456.3303260337407,
      "latitude_deg": 2.9187653042263532e-05,
      "longitude_deg": 179.49272681145064,
      "height_km": 463.6808489380898,
      "semi_major_axis_km": 6840.251784955688,
      "eccentricity": 0.00084565,
      "inclination_deg": 97.6445,
      "raan_deg": 219.8575,
      "arg_perigee_deg": 74.7645,
      "mean_anomaly_deg": 285.4532,
      "mean_motion_rev_day": 15.34598007
    },
    {
      "epoch": "2026-03-30T20:25:07.383360Z",
      "apogee_km": 467.8434893461417,
      "perigee_km": 456.2888813214131,
      "latitude_deg": -3.10812006112927e-05,
      "longitude_deg": 85.61034878696339,
      "height_km": 463.56513174382707,
      "semi_major_axis_km": 6840.203185333778,
      "eccentricity": 0.00084461,
      "inclination_deg": 97.6447,
      "raan_deg": 220.1277,
      "arg_perigee_deg": 74.0529,
      "mean_anomaly_deg": 286.1643,
      "mean_motion_rev_day": 15.34614362
    },
    {
      "epoch": "2026-03-31T07:22:22.963008Z",
      "apogee_km": 467.7635277507143,
      "perigee_km": 456.22286008753326,
      "latitude_deg": 3.561398976920981e-05,
      "longitude_deg": -78.68115296398528,
      "height_km": 463.30773058014194,
      "semi_major_axis_km": 6840.1301939191235,
      "eccentricity": 0.0008436,
      "inclination_deg": 97.645,
      "raan_deg": 220.601,
      "arg_perigee_deg": 72.1169,
      "mean_anomaly_deg": 288.0993,
      "mean_motion_rev_day": 15.34638926
    },
    {
      "epoch": "2026-04-01T20:55:45.754176Z",
      "apogee_km": 467.4693639716688,
      "perigee_km": 456.0071010570209,
      "latitude_deg": -3.7921236831780544e-05,
      "longitude_deg": 78.0527119971904,
      "height_km": 462.58626378121727,
      "semi_major_axis_km": 6839.875232514344,
      "eccentricity": 0.0008379,
      "inclination_deg": 97.6458,
      "raan_deg": 222.2222,
      "arg_perigee_deg": 67.0009,
      "mean_anomaly_deg": 293.2116,
      "mean_motion_rev_day": 15.34724734
    },
    {
      "epoch": "2026-04-02T14:08:31.104960Z",
      "apogee_km": 467.3281895684713,
      "perigee_km": 455.8847515627367,
      "latitude_deg": -1.8694566829797598e-05,
      "longitude_deg": 179.900152141306,
      "height_km": 462.21203286458973,
      "semi_major_axis_km": 6839.743470565603,
      "eccentricity": 0.00083654,
      "inclination_deg": 97.646,
      "raan_deg": 222.9655,
      "arg_perigee_deg": 64.2902,
      "mean_anomaly_deg": 295.9203,
      "mean_motion_rev_day": 15.34769082
    },
    {
      "epoch": "2026-04-02T21:57:56.420640Z",
      "apogee_km": 467.227053112877,
      "perigee_km": 455.7919848906886,
      "latitude_deg": 6.019441853959833e-06,
      "longitude_deg": 62.561259176985544,
      "height_km": 462.0248159658278,
      "semi_major_axis_km": 6839.6465190017825,
      "eccentricity": 0.00083594,
      "inclination_deg": 97.6462,
      "raan_deg": 223.3034,
      "arg_perigee_deg": 63.2594,
      "mean_anomaly_deg": 296.9503,
      "mean_motion_rev_day": 15.34801715
    },
    {
      "epoch": "2026-04-03T07:21:14.217120Z",
      "apogee_km": 467.1233605950474,
      "perigee_km": 455.73274895282793,
      "latitude_deg": 9.189429423782274e-07,
      "longitude_deg": -78.24335493371024,
      "height_km": 461.85396876314223,
      "semi_major_axis_km": 6839.565054773938,
      "eccentricity": 0.0008327,
      "inclination_deg": 97.6461,
      "raan_deg": 223.7085,
      "arg_perigee_deg": 62.131,
      "mean_anomaly_deg": 298.0775,
      "mean_motion_rev_day": 15.34829136
    },
    {
      "epoch": "2026-04-04T19:20:26.633184Z",
      "apogee_km": 466.768848131238,
      "perigee_km": 455.47996325500026,
      "latitude_deg": -3.378943814339977e-05,
      "longitude_deg": 102.03139065127847,
      "height_km": 461.1469083758924,
      "semi_major_axis_km": 6839.261405693119,
      "eccentricity": 0.0008253,
      "inclination_deg": 97.6464,
      "raan_deg": 225.2629,
      "arg_perigee_deg": 57.0893,
      "mean_anomaly_deg": 303.1142,
      "mean_motion_rev_day": 15.34931352
    },
    {
      "epoch": "2026-04-05T12:33:03.774240Z",
      "apogee_km": 466.6081648067857,
      "perigee_km": 455.4163074308317,
      "latitude_deg": 5.012518451569728e-07,
      "longitude_deg": -156.08687205043088,
      "height_km": 460.8386501614763,
      "semi_major_axis_km": 6839.149236118808,
      "eccentricity": 0.00081822,
      "inclination_deg": 97.6465,
      "raan_deg": 226.0062,
      "arg_perigee_deg": 54.3238,
      "mean_anomaly_deg": 305.8765,
      "mean_motion_rev_day": 15.34969114
    },
    {
      "epoch": "2026-04-05T18:48:33.263712Z",
      "apogee_km": 466.5469096793722,
      "perigee_km": 455.3868599601228,
      "latitude_deg": -8.419294091458238e-05,
      "longitude_deg": 110.05355119700299,
      "height_km": 460.7454781789934,
      "semi_major_axis_km": 6839.103884819747,
      "eccentricity": 0.0008159,
      "inclination_deg": 97.6465,
      "raan_deg": 226.2765,
      "arg_perigee_deg": 53.596,
      "mean_anomaly_deg": 306.6033,
      "mean_motion_rev_day": 15.34984382
    },
    {
      "epoch": "2026-04-06T07:19:31.670688Z",
      "apogee_km": 466.4904542950053,
      "perigee_km": 455.2907259328831,
      "latitude_deg": 4.915780957563492e-05,
      "longitude_deg": -77.66295321280496,
      "height_km": 460.5017978753855,
      "semi_major_axis_km": 6839.027590113944,
      "eccentricity": 0.00081881,
      "inclination_deg": 97.6466,
      "raan_deg": 226.8174,
      "arg_perigee_deg": 51.5873,
      "mean_anomaly_deg": 308.6104,
      "mean_motion_rev_day": 15.35010068
    },
    {
      "epoch": "2026-04-07T02:05:57.795936Z",
      "apogee_km": 466.34515298450333,
      "perigee_km": 455.2096222437276,
      "latitude_deg": 1.874601774084849e-06,
      "longitude_deg": 0.7683782710419099,
      "height_km": 460.23371718933123,
      "semi_major_axis_km": 6838.914387614115,
      "eccentricity": 0.00081413,
      "inclination_deg": 97.6466,
      "raan_deg": 227.6286,
      "arg_perigee_deg": 49.2447,
      "mean_anomaly_deg": 310.9501,
      "mean_motion_rev_day": 15.35048181
    },
    {
      "epoch": "2026-04-07T19:18:30.383712Z",
      "apogee_km": 466.19879459528056,
      "perigee_km": 455.1732441234699,
      "latitude_deg": -8.516089865801384e-05,
      "longitude_deg": 102.66925473013218,
      "height_km": 459.9991518395466,
      "semi_major_axis_km": 6838.823019359375,
      "eccentricity": 0.0008061,
      "inclination_deg": 97.6467,
      "raan_deg": 228.372,
      "arg_perigee_deg": 46.7293,
      "mean_anomaly_deg": 313.462,
      "mean_motion_rev_day": 15.35078944
    },
    {
      "epoch": "2026-04-08T07:49:26.026752Z",
      "apogee_km": 466.1269681945614,
      "perigee_km": 455.1126032905813,
      "latitude_deg": -1.7713428667812995e-05,
      "longitude_deg": -85.03549338534998,
      "height_km": 459.7966546848927,
      "semi_major_axis_km": 6838.756785742571,
      "eccentricity": 0.00080529,
      "inclination_deg": 97.6467,
      "raan_deg": 228.9131,
      "arg_perigee_deg": 44.6863,
      "mean_anomaly_deg": 315.5027,
      "mean_motion_rev_day": 15.35101245
    },
    {
      "epoch": "2026-04-09T07:17:23.746848Z",
      "apogee_km": 465.9662603214001,
      "perigee_km": 455.05178127220825,
      "latitude_deg": 2.085139812707643e-05,
      "longitude_deg": -76.97551764498347,
      "height_km": 459.50777906772544,
      "semi_major_axis_km": 6838.646020796804,
      "eccentricity": 0.000798,
      "inclination_deg": 97.6465,
      "raan_deg": 229.9273,
      "arg_perigee_deg": 41.3861,
      "mean_anomaly_deg": 318.7985,
      "mean_motion_rev_day": 15.35138541
    }
  ]
}